$$SOE
2459580.500000000, A.D. 2022-Jan-01 00:00:00.0000, -4.089303372375081E+08, -4.126312220901951E+08, 6.676667334353268E+06,
2459587.500000000, A.D. 2022-Jan-08 00:00:00.0000, -4.024576816199832E+08, -4.182224491884012E+08, 5.782022219272554E+06,
2459594.500000000, A.D. 2022-Jan-15 00:00:00.0000, -3.958851636056479E+08, -4.237098423514555E+08, 4.885942703162521E+06,
2459601.500000000, A.D. 2022-Jan-22 00:00:00.0000, -3.892141314726599E+08, -4.290917416029425E+08, 3.988647424730092E+06,
2459608.500000000, A.D. 2022-Jan-29 00:00:00.0000, -3.824459572211506E+08, -4.343664925350283E+08, 3.090356599700987E+06,
2459615.500000000, A.D. 2022-Feb-05 00:00:00.0000, -3.755820390831546E+08, -4.395324471600407E+08, 2.191292181738049E+06,
2459622.500000000, A.D. 2022-Feb-12 00:00:00.0000, -3.686238018657760E+08, -4.445879658446158E+08, 1.291677737937301E+06,
2459629.500000000, A.D. 2022-Feb-19 00:00:00.0000, -3.615726964526822E+08, -4.495314179579565E+08, 3.917383538978100E+05,
2459636.500000000, A.D. 2022-Feb-26 00:00:00.0000, -3.544301997751492E+08, -4.543611819573891E+08, -5.082993706427217E+05,
2459643.500000000, A.D. 2022-Mar-05 00:00:00.0000, -3.471978150930684E+08, -4.590756455283961E+08, -1.408207300939113E+06,
2459650.500000000, A.D. 2022-Mar-12 00:00:00.0000, -3.398770723638472E+08, -4.636732058452650E+08, -2.307755747214288E+06,
2459657.500000000, A.D. 2022-Mar-19 00:00:00.0000, -3.324695286280454E+08, -4.681522699246867E+08, -3.206713450071275E+06,
2459664.500000000, A.D. 2022-Mar-26 00:00:00.0000, -3.249767683892720E+08, -4.725112550783526E+08, -4.104847574209005E+06,
2459671.500000000, A.D. 2022-Apr-02 00:00:00.0000, -3.174004039202499E+08, -4.767485895202411E+08, -5.001923721512854E+06,
2459678.500000000, A.D. 2022-Apr-09 00:00:00.0000, -3.097420752223935E+08, -4.808627131236010E+08, -5.897705988330632E+06,
2459685.500000000, A.D. 2022-Apr-16 00:00:00.0000, -3.020034492809919E+08, -4.848520776736621E+08, -6.791957046472043E+06,
2459692.500000000, A.D. 2022-Apr-23 00:00:00.0000, -2.941862198840894E+08, -4.887151455321448E+08, -7.684438043145239E+06,
2459699.500000000, A.D. 2022-Apr-30 00:00:00.0000, -2.862921098744563E+08, -4.924503889594809E+08, -8.574908331984997E+06,
2459706.500000000, A.D. 2022-May-07 00:00:00.0000, -2.783228727716529E+08, -4.960562920696089E+08, -9.463125477595389E+06,
2459713.500000000, A.D. 2022-May-14 00:00:00.0000, -2.702802923752134E+08, -4.995313523803848E+08, -1.034884541289109E+07,
2459720.500000000, A.D. 2022-May-21 00:00:00.0000, -2.621661823803036E+08, -5.028740812012203E+08, -1.123182250097111E+07,
2459727.500000000, A.D. 2022-May-28 00:00:00.0000, -2.539823864843374E+08, -5.060830038165550E+08, -1.211180953597265E+07,
2459734.500000000, A.D. 2022-Jun-04 00:00:00.0000, -2.457307787066661E+08, -5.091566597778299E+08, -1.298855773391145E+07,
2459741.500000000, A.D. 2022-Jun-11 00:00:00.0000, -2.374132637756492E+08, -5.120936033019130E+08, -1.386181672663325E+07,
2459748.500000000, A.D. 2022-Jun-18 00:00:00.0000, -2.290317775434322E+08, -5.148924037631592E+08, -1.473133456136721E+07,
2459755.500000000, A.D. 2022-Jun-25 00:00:00.0000, -2.205882873982048E+08, -5.175516463129479E+08, -1.559685771130210E+07,
2459762.500000000, A.D. 2022-Jul-02 00:00:00.0000, -2.120847925392855E+08, -5.200699326931318E+08, -1.645813111483654E+07,
2459769.500000000, A.D. 2022-Jul-09 00:00:00.0000, -2.035233237242562E+08, -5.224458820670686E+08, -1.731489826479807E+07,
2459776.500000000, A.D. 2022-Jul-16 00:00:00.0000, -1.949059425428498E+08, -5.246781307859194E+08, -1.816690125401771E+07,
2459783.500000000, A.D. 2022-Jul-23 00:00:00.0000, -1.862347424153083E+08, -5.267653310126504E+08, -1.901388056915936E+07,
2459790.500000000, A.D. 2022-Jul-30 00:00:00.0000, -1.775118512300223E+08, -5.287061515579013E+08, -1.985557491452351E+07,
2459797.500000000, A.D. 2022-Aug-06 00:00:00.0000, -1.687394320207160E+08, -5.304992802806189E+08, -2.069172134289381E+07,
2459804.500000000, A.D. 2022-Aug-13 00:00:00.0000, -1.599196825058191E+08, -5.321434253000903E+08, -2.152205539269665E+07,
2459811.500000000, A.D. 2022-Aug-20 00:00:00.0000, -1.510548350587524E+08, -5.336373155232920E+08, -2.234631112850168E+07,
2459818.500000000, A.D. 2022-Aug-27 00:00:00.0000, -1.421471570400933E+08, -5.349797012143905E+08, -2.316422115035006E+07,
2459825.500000000, A.D. 2022-Sep-03 00:00:00.0000, -1.331989512425899E+08, -5.361693547171921E+08, -2.397551660361215E+07,
2459832.500000000, A.D. 2022-Sep-10 00:00:00.0000, -1.242125563576363E+08, -5.372050713070201E+08, -2.477992719568846E+07,
2459839.500000000, A.D. 2022-Sep-17 00:00:00.0000, -1.151903474324520E+08, -5.380856701743876E+08, -2.557718122249565E+07,
2459846.500000000, A.D. 2022-Sep-24 00:00:00.0000, -1.061347362562579E+08, -5.388099955921648E+08, -2.636700561461857E+07,
2459853.500000000, A.D. 2022-Oct-01 00:00:00.0000, -9.704817143428876E+07, -5.393769182893893E+08, -2.714912602722111E+07,
2459860.500000000, A.D. 2022-Oct-08 00:00:00.0000, -8.793313774120919E+07, -5.397853365104283E+08, -2.792326696873119E+07,
2459867.500000000, A.D. 2022-Oct-15 00:00:00.0000, -7.879215568461749E+07, -5.400341755607997E+08, -2.868915178519192E+07,
2459874.500000000, A.D. 2022-Oct-22 00:00:00.0000, -6.962778345876577E+07, -5.401223875235747E+08, -2.944650243818057E+07,
2459881.500000000, A.D. 2022-Oct-29 00:00:00.0000, -6.044261878876362E+07, -5.400489537401588E+08, -3.019503951783174E+07,
2459888.500000000, A.D. 2022-Nov-05 00:00:00.0000, -5.123929856426181E+07, -5.398128873154931E+08, -3.093448246002039E+07,
2459895.500000000, A.D. 2022-Nov-12 00:00:00.0000, -4.202049822624484E+07, -5.394132343814701E+08, -3.166454968434140E+07,
2459902.500000000, A.D. 2022-Nov-19 00:00:00.0000, -3.278893162519435E+07, -5.388490750729964E+08, -3.238495866518849E+07,
2459909.500000000, A.D. 2022-Nov-26 00:00:00.0000, -2.354735108716370E+07, -5.381195246137615E+08, -3.309542599268529E+07,
2459916.500000000, A.D. 2022-Dec-03 00:00:00.0000, -1.429854752016754E+07, -5.372237345224700E+08, -3.379566743979001E+07,
2459923.500000000, A.D. 2022-Dec-10 00:00:00.0000, -5.045350513201619E+06, -5.361608939198863E+08, -3.448539803834075E+07,
2459930.500000000, A.D. 2022-Dec-17 00:00:00.0000, 4.209371599576218E+06, -5.349302309611368E+08, -3.516433216849825E+07,
2459937.500000000, A.D. 2022-Dec-24 00:00:00.0000, 1.346271182183137E+07, -5.335310144593877E+08, -3.583218367721295E+07,
2459944.500000000, A.D. 2022-Dec-31 00:00:00.0000, 2.271172508546397E+07, -5.319625555943732E+08, -3.648866604997602E+07,
2459951.500000000, A.D. 2023-Jan-07 00:00:00.0000, 3.195342947321716E+07, -5.302242087444998E+08, -3.713349256868687E+07,
2459958.500000000, A.D. 2023-Jan-14 00:00:00.0000, 4.118480610809539E+07, -5.283153709461092E+08, -3.776637623475003E+07,
2459965.500000000, A.D. 2023-Jan-21 00:00:00.0000, 5.040279706672289E+07, -5.262354831518314E+08, -3.838702965761030E+07,
2459972.500000000, A.D. 2023-Jan-28 00:00:00.0000, 5.960430498716073E+07, -5.239840334828943E+08, -3.899516526125443E+07,
2459979.500000000, A.D. 2023-Feb-04 00:00:00.0000, 6.878619416516298E+07, -5.215605594475818E+08, -3.959049554223996E+07,
2459986.500000000, A.D. 2023-Feb-11 00:00:00.0000, 7.794529134599146E+07, -5.189646493189937E+08, -4.017273323045233E+07,
2459993.500000000, A.D. 2023-Feb-18 00:00:00.0000, 8.707838615101653E+07, -5.161959434943132E+08, -4.074159141407669E+07,
2460000.500000000, A.D. 2023-Feb-25 00:00:00.0000, 9.618223140454625E+07, -5.132541359961128E+08, -4.129678366609803E+07,
2460007.500000000, A.D. 2023-Mar-04 00:00:00.0000, 1.052535434658513E+08, -5.101389760953773E+08, -4.183802418013471E+07,
2460014.500000000, A.D. 2023-Mar-11 00:00:00.0000, 1.142890025979850E+08, -5.068502700539858E+08, -4.236502791813353E+07,
2460021.500000000, A.D. 2023-Mar-18 00:00:00.0000, 1.232852534237152E+08, -5.033878830343474E+08, -4.287751077823344E+07,
2460028.500000000, A.D. 2023-Mar-25 00:00:00.0000, 1.322389056752751E+08, -4.997517412218489E+08, -4.337518980525523E+07,
2460035.500000000, A.D. 2023-Apr-01 00:00:00.0000, 1.411465356657209E+08, -4.959418337654006E+08, -4.385778345056006E+07,
2460042.500000000, A.D. 2023-Apr-08 00:00:00.0000, 1.500046878693934E+08, -4.919582133096772E+08, -4.432501172465321E+07,
2460049.500000000, A.D. 2023-Apr-15 00:00:00.0000, 1.588098742770240E+08, -4.878009962229008E+08, -4.477659611845908E+07,
2460056.500000000, A.D. 2023-Apr-22 00:00:00.0000, 1.675585733375791E+08, -4.834703655688987E+08, -4.521225970854631E+07,
2460063.500000000, A.D. 2023-Apr-29 00:00:00.0000, 1.762472312254440E+08, -4.789665745678815E+08, -4.563172751314542E+07,
2460070.500000000, A.D. 2023-May-06 00:00:00.0000, 1.848722636760961E+08, -4.742899487626979E+08, -4.603472679211104E+07,
2460077.500000000, A.D. 2023-May-13 00:00:00.0000, 1.934300574165025E+08, -4.694408877816068E+08, -4.642098727444482E+07,
2460084.500000000, A.D. 2023-May-20 00:00:00.0000, 2.019169714273120E+08, -4.644198671856970E+08, -4.679024137521669E+07,
2460091.500000000, A.D. 2023-May-27 00:00:00.0000, 2.103293382331922E+08, -4.592274404271499E+08, -4.714222442230466E+07,
2460098.500000000, A.D. 2023-Jun-03 00:00:00.0000, 2.186634652816476E+08, -4.538642408887913E+08, -4.747667489639142E+07,
2460105.500000000, A.D. 2023-Jun-10 00:00:00.0000, 2.269156364368181E+08, -4.483309840146959E+08, -4.779333468779784E+07,
2460112.500000000, A.D. 2023-Jun-17 00:00:00.0000, 2.350821136802233E+08, -4.426284695876647E+08, -4.809194938350266E+07,
2460119.500000000, A.D. 2023-Jun-24 00:00:00.0000, 2.431591393416251E+08, -4.367575840938684E+08, -4.837226860943368E+07,
2460126.500000000, A.D. 2023-Jul-01 00:00:00.0000, 2.511429391162070E+08, -4.307193023429593E+08, -4.863404638383406E+07,
2460133.500000000, A.D. 2023-Jul-08 00:00:00.0000, 2.590297241963199E+08, -4.245146875179882E+08, -4.887704126112548E+07,
2460140.500000000, A.D. 2023-Jul-15 00:00:00.0000, 2.668156912422757E+08, -4.181448924800303E+08, -4.910101638035020E+07,
$$EOE